CCSDS_OEM_VERS = 2.0
CREATION_DATE  = 2024-12-13T17:44:39.470
ORIGINATOR     = NASA/JSC/FOD/TOPO

META_START
OBJECT_NAME          = ISS
OBJECT_ID            = 1998-067-A
CENTER_NAME          = Earth
REF_FRAME            = EME2000
TIME_SYSTEM          = UTC
START_TIME           = 2024-12-13T12:00:00.000
USEABLE_START_TIME   = 2024-12-13T12:00:00.000
USEABLE_STOP_TIME    = 2024-12-28T12:00:00.000
STOP_TIME            = 2024-12-28T12:00:00.000
META_STOP

COMMENT Source: This file was produced by the TOPO office within FOD at JSC.
COMMENT Units are in kg and m^2
COMMENT MASS=473264.00
COMMENT DRAG_AREA=1434.00
COMMENT DRAG_COEFF=1.64
COMMENT SOLAR_RAD_AREA=0.00
COMMENT SOLAR_RAD_COEFF=0.00
COMMENT Orbits start at the ascending node epoch
COMMENT ISS first asc. node: EPOCH = 2024-12-13T12:11:45.922 $ ORBIT = 636 $ LAN(DEG) = -118.66209
COMMENT ISS last asc. node : EPOCH = 2024-12-28T11:06:26.161 $ ORBIT = 868 $ LAN(DEG) = 168.80581
COMMENT Begin sequence of events
COMMENT TRAJECTORY EVENT SUMMARY:
COMMENT 
COMMENT |       EVENT        |       TIG        | ORB |   DV    |   HA    |   HP    |
COMMENT |                    |       GMT        |     |   M/S   |   KM    |   KM    |
COMMENT |                    |                  |     |  (F/S)  |  (NM)   |  (NM)   |
COMMENT =============================================================================
COMMENT  SpX-31 Undock         350:16:00:00.000             0.0     421.2     408.3
COMMENT                                                    (0.0)   (227.4)   (220.5)
COMMENT 
COMMENT  GMT356 Reboost Preli  356:01:58:00.000             1.5     422.5     406.1
COMMENT                                                    (4.9)   (228.2)   (219.2)
COMMENT 
COMMENT =============================================================================
COMMENT End sequence of events
2024-12-16T09:08:00.000 5463.134024448420 -3371.011824642240 -2242.688319578240 1.01437863237180 5.27245112242820 -5.45603989135263
2024-12-16T09:12:00.000 5505.325094175290 -1998.599533828190 -3454.570534386500 -0.66465060440865 6.09449306854456 -4.58140967018250
2024-12-16T09:16:00.000 5148.095796584320 -481.162653779914 -4415.113068495600 -2.29390445316623 6.47378107984509 -3.37442211373126
2024-12-16T09:20:00.000 4417.670436486510 1071.171541306400 -5054.691792147740 -3.75583039494679 6.38364538756035 -1.92299216214582
2024-12-16T09:24:00.000 3367.143616390750 2545.895286028580 -5326.964218686970 -4.94533276413474 5.83096009347662 -0.33206853977089
2024-12-16T09:28:00.000 2072.617798635060 3836.116843892940 -5212.091642052390 -5.77684871277126 4.85533492834512 1.28370548075889
2024-12-16T09:32:00.000 627.800881318273 4848.115271695770 -4718.137754765670 -6.19004128376592 3.52630991590298 2.80777208494342
2024-12-16T09:36:00.000 -862.575351100902 5508.027344155620 -3880.584481808610 -6.15397843050253 1.93895663144292 4.12950660011565
2024-12-16T09:40:00.000 -2290.173930617050 5767.271717904550 -2759.969190929530 -5.66983056871442 0.20770959243496 5.15201440655228
2024-12-16T09:44:00.000 -3550.874005445780 5606.288190396910 -1437.700098268640 -4.77147559649281 -1.54144808362190 5.79940283192378
2024-12-16T09:48:00.000 -4552.461095201420 5036.236609330430 -10.247271450174 -3.52374833244464 -3.18011176519017 6.02296057401851
2024-12-16T09:52:00.000 -5221.574390721980 4098.388616065210 1417.947420158030 -2.01794369739606 -4.58742054596596 5.80545999710278
2024-12-16T09:56:00.000 -5509.264987368900 2861.158585395050 2742.269014604720 -0.36489393710693 -5.65953102094812 5.16273426776420
2024-12-16T10:00:00.000 -5394.676572209570 1415.002374562970 3865.789075316510 1.31369950551525 -6.31783500876364 4.14255538651036
2024-12-16T10:04:00.000 -4886.502466884120 -134.408360546910 4706.482181539680 2.89489142716104 -6.51485491267022 2.82043941674302
2024-12-16T10:08:00.000 -4022.166779151000 -1674.052936517750 5203.180619917230 4.26364167682189 -6.23709210750118 1.29356597994948
2024-12-16T10:12:00.000 -2864.935879027770 -3091.819388305060 5319.922024818420 5.32089464882188 -5.50551423326714 -0.32649330604169
2024-12-16T10:16:00.000 -1499.226505841890 -4284.608993180610 5048.442196885000 5.99047298562402 -4.37375997290588 -1.92189494050628
2024-12-16T10:20:00.000 -24.462289101505 -5165.725004394600 4408.675722874810 6.22418413683201 -2.92404114011630 -3.37683918564726
2024-12-16T10:24:00.000 1452.072965157440 -5671.081572271260 3447.307787562540 6.00513021266949 -1.26151485594564 -4.58552038055376
2024-12-16T10:28:00.000 2822.961274221440 -5763.879826027200 2234.445590705840 5.34916754936783 0.49293479590250 -5.45977109430434
2024-12-16T10:32:00.000 3988.467878996670 -5437.354147697380 858.564073763726 4.30410797306967 2.21143794241927 -5.93567443885931
2024-12-16T10:36:00.000 4863.862892730250 -4715.336904556770 -579.951631522424 2.94644091692115 3.76850580993682 -5.97857103633766
2024-12-16T10:40:00.000 5385.663123554990 -3650.518275261730 -1976.208189881630 1.37558528004822 5.05067716036785 -5.58577101867195
2024-12-16T10:44:00.000 5516.251641317560 -2320.515330931970 -3228.533665127180 -0.29370071080149 5.96497535227546 -4.78661760742195
2024-12-16T10:48:00.000 5246.528791424980 -822.100979327177 -4245.925205234440 -1.94004538672382 6.44570549978485 -3.64005297009160
2024-12-16T10:52:00.000 4596.410050769950 735.929482313931 -4954.613453345150 -3.44450040043846 6.45888935677346 -2.22978371108299
2024-12-16T10:56:00.000 3613.222260348310 2240.638263157140 -5303.263049595000 -4.69889152352691 6.00408829470962 -0.65791004800973
2024-12-16T11:00:00.000 2368.223684135540 3582.984889516730 -5266.536425085710 -5.61306951295536 5.11398558293698 0.96227180251424
2024-12-16T11:04:00.000 951.535182347197 4665.533484305680 -4846.861851306360 -6.12087771769544 3.85205543346627 2.51397925399878
2024-12-16T11:08:00.000 -534.196677457201 5409.379577255460 -4074.333432101450 -6.18473176221265 2.30843121515678 3.88475713169964
2024-12-16T11:12:00.000 -1981.049940205900 5759.894070368040 -3004.726973796640 -5.79860973081959 0.59417939805845 4.97433744844235
2024-12-16T11:16:00.000 -3283.580795526960 5690.883902097110 -1715.668462806150 -4.98918968441380 -1.16619353148902 5.70208162068210
2024-12-16T11:20:00.000 -4346.572795053290 5206.763595967820 -301.124443118529 -3.81459981200353 -2.84371098249892 6.01340265481314
2024-12-16T11:24:00.000 -5092.179330475080 4342.465806687950 1135.456425219770 -2.36060729157958 -4.31469997671688 5.88448353208198
2024-12-16T11:28:00.000 -5465.833717452930 3160.975747310930 2488.859885261010 -0.73415989027773 -5.47063285744169 5.32455199067027
2024-12-16T11:32:00.000 -5440.345984896200 1748.640405672700 3660.002221332950 0.94504107187483 -6.22659556204206 4.37510734608322
2024-12-16T11:36:00.000 -5017.866491429270 208.687509177674 4563.317785488870 2.55378961142682 -6.52772002932229 3.10651676273457
2024-12-16T11:40:00.000 -4229.581766388520 -1346.499431718300 5133.031725811860 3.97483987402810 -6.35293584673483 1.61222410902070
2024-12-16T11:44:00.000 -3133.244621447460 -2803.646122174310 5327.849337252320 5.10533709992942 -5.71581568848137 0.00149457299621
2024-12-16T11:48:00.000 -1808.861688791390 -4056.763685658580 5133.810358305350 5.86371842233005 -4.66310924730535 -1.60847689789616
2024-12-16T11:52:00.000 -352.882580136688 -5014.753577811110 4565.220452486430 6.19534454040883 -3.27140634758479 -3.10073901498085
2024-12-16T11:56:00.000 1128.761093045780 -5607.947414099540 3663.591906761520 6.07628107411913 -1.64165689507841 -4.36683944349082
2024-12-16T12:00:00.000 2528.277445118330 -5793.154291328270 2494.675633053660 5.51511722434854 0.10772235143338 -5.31448068476734
2024-12-16T12:04:00.000 3743.837772619050 -5556.867424016320 1143.738086055230 4.55270370522823 1.84927435828814 -5.87436544981479
2024-12-16T12:08:00.000 4687.040406867180 -4916.331316969040 -290.643408424678 3.25943175693452 3.45580403063138 -6.00561515959764
2024-12-16T12:12:00.000 5289.431840244100 -3918.306746667320 -1703.845606286510 1.73006341691594 4.81014527599244 -5.69904864000821
2024-12-16T12:16:00.000 5507.504722520960 -2635.573843331900 -2992.922909906120 0.07640361627359 5.81396258596895 -4.97770309884949
2024-12-16T12:20:00.000 5325.794109246790 -1161.514012174600 -4064.156001369140 -1.58116611645930 6.39495923878914 -3.89488983883438
2024-12-16T12:24:00.000 4757.850772144380 396.789431697643 -4839.836692617610 -3.12271587694566 6.51186476097170 -2.52982325676110
2024-12-16T12:28:00.000 3845.092656387910 1926.337724217590 -5263.777303272740 -4.43729559101682 6.15685375612854 -0.98150725992339
2024-12-16T12:32:00.000 2653.721559657050 3316.295737894720 -5305.219696763550 -5.43048063777588 5.35560406827080 0.63839693448179
2024-12-16T12:36:00.000 1269.982909743480 4465.826354756760 -4960.963225295950 -6.03058021193495 4.16527427411084 2.21318700034777
2024-12-16T12:40:00.000 -205.899577975964 5291.236675974700 -4255.641257904830 -6.19349730536564 2.67081096702868 3.62893813689136
2024-12-16T12:44:00.000 -1666.781229800200 5732.029089148200 -3240.112963036250 -5.90608192842610 0.97953257824673 4.78229910855134
2024-12-16T12:48:00.000 -3006.264104422190 5755.458250789800 -1988.011056649960 -5.18780487918179 -0.78595064347160 5.58808235573270
2024-12-16T12:52:00.000 -4126.489089918700 5359.175856786940 -590.539518012693 -4.09000930262235 -2.49650086662024 5.98604843853598
2024-12-16T12:56:00.000 -4945.438714371700 4571.644819326440 850.156806309221 -2.69261250162255 -4.02614879251833 5.94592783356751
2024-12-16T13:00:00.000 -5403.152235025910 3450.191229463740 2228.573493253200 -1.09832408419500 -5.26195689614735 5.47025375149446
2024-12-16T13:04:00.000 -5466.261523565420 2076.760169750140 3443.774903902860 0.57544173875923 -6.11305781254959 4.59428212069526
2024-12-16T13:08:00.000 -5130.420930205610 551.743262778739 4406.934511901140 2.20582984844069 -6.51752291509767 3.38294655219547
